     2.100          NAVIGATION                              RINEX VERSION / TYPE
fic2rin                                 09/11/2014 00:27:40 PGM / RUN BY / DATE
                                                            END OF HEADER
 7 14  9 10 20  0  0.0  .390145462006D-03  .420641299570D-11  .000000000000D+00
     .530000000000D+02 -.103187500000D+03  .422767609968D-08  .215623011534D+01
    -.530667603016D-05  .791683513671D-02  .826269388199D-05  .515361501312D+04
     .331200000000D+06 -.856816768646D-07 -.414645282795D+00 -.745058059692D-08
     .972766954025D+00  .229187500000D+03 -.278845468180D+01 -.805390690612D-08
    -.588238788221D-09  .100000000000D+01  .180900000000D+04  .000000000000D+00
     .240000000000D+01  .000000000000D+00 -.107102096081D-07  .530000000000D+02
     .324006000000D+06  .400000000000D+01
 8 14  9 10 20  0  0.0  .154934823513D-04  .113686837722D-12  .000000000000D+00
     .550000000000D+02 -.106093750000D+03  .357479176157D-08  .215313324504D+01
    -.543333590031D-05  .145863823127D-01  .976026058197D-05  .515218439293D+04
     .331200000000D+06 -.236555933952D-06 -.312910588999D+00 -.204890966415D-07
     .996251864060D+00  .213718750000D+03 -.271625532534D+01 -.771353558543D-08
    -.586095841816D-09  .100000000000D+01  .180900000000D+04  .000000000000D+00
     .240000000000D+01  .000000000000D+00 -.419095158577D-08  .550000000000D+02
     .324006000000D+06  .400000000000D+01
10 14  9 10 20  0  0.0 -.141445547342D-03 -.147792889038D-11  .000000000000D+00
     .830000000000D+02  .538125000000D+02  .492127641949D-08 -.290892301152D+00
     .292807817459D-05  .138827596093D-01  .119414180517D-04  .515362180328D+04
     .331200000000D+06 -.204890966415D-07 -.252212143244D+01  .173225998878D-06
     .942097588935D+00  .138781250000D+03  .880862582571D+00 -.843106547343D-08
     .115361948145D-09  .100000000000D+01  .180900000000D+04  .000000000000D+00
     .340000000000D+01  .000000000000D+00 -.279396772385D-08  .830000000000D+02
     .324006000000D+06  .400000000000D+01
11 14  9 10 20  0  0.0 -.520233064890D-03 -.295585778076D-11  .000000000000D+00
     .320000000000D+02 -.847812500000D+02  .655955894625D-08  .228191100358D+01
    -.460259616375D-05  .154918275075D-01  .408105552197D-05  .515370672989D+04
     .331200000000D+06  .163912773132D-06  .237642492537D+01 -.204890966415D-06
     .891290925342D+00  .261937500000D+03  .133012262104D+01 -.902430446993D-08
    -.421088968617D-09  .100000000000D+01  .180900000000D+04  .000000000000D+00
     .240000000000D+01  .000000000000D+00 -.121071934700D-07  .320000000000D+02
     .324006000000D+06  .400000000000D+01
12 14  9 10 20  0  0.0  .231056939811D-03  .261479726760D-11  .000000000000D+00
     .143000000000D+03  .449062500000D+02  .363086552584D-08  .171791799841D+01
     .221654772758D-05  .507214548998D-02  .124927610159D-04  .515355490303D+04
     .331200000000D+06 -.763684511185D-07  .649190668186D+00  .391155481339D-07
     .988454354166D+00  .151093750000D+03  .502221767644D+00 -.762424615188D-08
     .367872466222D-09  .100000000000D+01  .180900000000D+04  .000000000000D+00
     .340000000000D+01  .000000000000D+00 -.121071934700D-07  .143000000000D+03
     .324006000000D+06  .400000000000D+01
13 14  9 10 20  0  0.0 -.401674769819D-04 -.386535248253D-11  .000000000000D+00
     .220000000000D+02  .355312500000D+02  .468912389226D-08 -.181710992700D+01
     .181794166565D-05  .525761523750D-02  .304356217384D-05  .515376807404D+04
     .331200000000D+06 -.163912773132D-06 -.137835705186D+01  .372529029846D-07
     .976092855854D+00  .329343750000D+03  .232629935987D+01 -.844106588999D-08
     .842892252703D-10  .100000000000D+01  .180900000000D+04  .000000000000D+00
     .240000000000D+01  .000000000000D+00 -.111758708954D-07  .220000000000D+02
     .324006000000D+06  .400000000000D+01
14 14  9 10 20  0  0.0  .136202201247D-03 -.363797880709D-11  .000000000000D+00
     .480000000000D+02  .342812500000D+02  .485555939640D-08 -.146200574504D+01
     .184401869774D-05  .790596578736D-02  .247359275818D-05  .515370867348D+04
     .331200000000D+06  .191852450371D-06 -.141100249451D+01  .894069671631D-07
     .968629043425D+00  .338250000000D+03 -.198326253606D+01 -.852606943073D-08
     .639312344211D-10  .100000000000D+01  .180900000000D+04  .000000000000D+00
     .240000000000D+01  .000000000000D+00 -.884756445885D-08  .480000000000D+02
     .324006000000D+06  .400000000000D+01
15 14  9 10 20  0  0.0 -.202080700547D-03 -.227373675443D-11  .000000000000D+00
     .760000000000D+02  .562812500000D+02  .551272962732D-08 -.208315319089D+01
     .294484198093D-05  .649760582019D-02  .265426933765D-05  .515375551796D+04
     .331200000000D+06  .130385160446D-07 -.152661570048D+01 -.316649675369D-07
     .935247517453D+00  .316750000000D+03  .277766739745D+00 -.876679374358D-08
     .242152943785D-09  .100000000000D+01  .180900000000D+04  .000000000000D+00
     .240000000000D+01  .000000000000D+00 -.102445483208D-07  .760000000000D+02
     .324006000000D+06  .400000000000D+01
16 14  9 10 20  0  0.0 -.195739325136D-03  .250111042988D-11  .000000000000D+00
     .760000000000D+02  .391250000000D+02  .361157900819D-08 -.415111728373D+00
     .216066837311D-05  .765899231192D-02  .132378190756D-04  .515366268921D+04
     .331200000000D+06  .137835741043D-06  .667779887758D+00  .391155481339D-07
     .989025243317D+00  .135875000000D+03  .238828682253D+00 -.771032116583D-08
     .482877256633D-09  .100000000000D+01  .180900000000D+04  .000000000000D+00
     .240000000000D+01  .000000000000D+00 -.102445483208D-07  .760000000000D+02
     .324006000000D+06  .400000000000D+01
18 14  9 10 20  0  0.0  .343967229128D-03  .261479726760D-11  .000000000000D+00
     .660000000000D+02  .632500000000D+02  .527807699595D-08  .193964137351D+00
     .341236591339D-05  .154919774504D-01  .124666839838D-04  .515373383522D+04
     .331200000000D+06 -.186264514923D-06 -.254633716368D+01  .175088644028D-06
     .925878864263D+00  .124875000000D+03 -.201235297659D+01 -.863464538192D-08
     .807176479283D-10  .100000000000D+01  .180900000000D+04  .000000000000D+00
     .240000000000D+01  .000000000000D+00 -.107102096081D-07  .660000000000D+02
     .324006000000D+06  .400000000000D+01
19 14  9 10 20  0  0.0 -.478041823953D-03 -.193267624127D-11  .000000000000D+00
     .510000000000D+02  .199062500000D+02  .502842373975D-08 -.217416557877D+01
     .756233930588D-06  .106003015535D-01  .345893204212D-05  .515364063644D+04
     .331200000000D+06  .800937414169D-07  .174888191035D+01 -.182539224625D-06
     .966454006083D+00  .316125000000D+03  .498578431610D+00 -.842856536929D-08
     .390730561211D-09  .100000000000D+01  .180900000000D+04  .000000000000D+00
     .240000000000D+01  .000000000000D+00 -.149011611938D-07  .510000000000D+02
     .324006000000D+06  .400000000000D+01
20 14  9 10 20  0  0.0  .232343096286D-03  .443378667114D-11  .000000000000D+00
     .110000000000D+02  .435000000000D+02  .505663920075D-08  .699456243732D+00
     .233203172684D-05  .593719154131D-02  .138133764267D-04  .515374658012D+04
     .331200000000D+06 -.763684511185D-07 -.259926948820D+01  .298023223877D-07
     .926988783135D+00  .942500000000D+02  .132934751876D+01 -.840606443204D-08
     .775032283206D-10  .100000000000D+01  .180900000000D+04  .000000000000D+00
     .240000000000D+01  .000000000000D+00 -.791624188423D-08  .110000000000D+02
     .324006000000D+06  .400000000000D+01
22 14  9 10 20  0  0.0  .266716815531D-03  .329691829393D-11  .000000000000D+00
     .940000000000D+02  .761250000000D+02  .520700260684D-08 -.356741633481D+00
     .387988984585D-05  .736715784296D-02  .128019601107D-04  .515373608971D+04
     .331200000000D+06 -.484287738800D-07 -.254465730801D+01  .670552253723D-07
     .923665946120D+00  .111750000000D+03 -.205104938635D+01 -.852642658846D-08
     .120004998690D-09  .100000000000D+01  .180900000000D+04  .000000000000D+00
     .240000000000D+01  .000000000000D+00 -.172294676304D-07  .940000000000D+02
     .324006000000D+06  .400000000000D+01
23 14  9 10 20  0  0.0 -.513382256031D-04 -.295585778076D-11  .000000000000D+00
     .250000000000D+02  .559375000000D+02  .520593113364D-08 -.258877188796D+01
     .276044011116D-05  .971315510105D-02  .298395752907D-05  .515373315430D+04
     .331200000000D+06 -.763684511185D-07 -.147829314493D+01 -.199303030968D-06
     .950330432528D+00  .316062500000D+03 -.273203268031D+01 -.861250160240D-08
     .228938107620D-09  .100000000000D+01  .180900000000D+04  .000000000000D+00
     .240000000000D+01  .000000000000D+00 -.200234353542D-07  .250000000000D+02
     .324006000000D+06  .400000000000D+01
24 14  9 10 20  0  0.0 -.349688343704D-04 -.568434188608D-12  .000000000000D+00
     .470000000000D+02 -.935000000000D+02  .457161899771D-08  .303494273352D+01
    -.482797622681D-05  .219680275768D-02  .777468085289D-05  .515371175194D+04
     .331200000000D+06 -.409781932831D-07 -.451078947420D+00  .931322574615D-08
     .956043736202D+00  .226593750000D+03  .250370391995D+00 -.822748556494D-08
    -.471091051405D-09  .100000000000D+01  .180900000000D+04  .000000000000D+00
     .240000000000D+01  .000000000000D+00  .279396772385D-08  .470000000000D+02
     .324006000000D+06  .400000000000D+01
25 14  9 10 20  0  0.0  .217850320041D-04 -.909494701773D-12  .000000000000D+00
     .108000000000D+03  .382812500000D+02  .386944689228D-08  .975893695650D+00
     .175647437572D-05  .367046601605D-02  .127274543047D-04  .515356026268D+04
     .331200000000D+06 -.782310962677D-07  .605564704338D+00  .167638063431D-07
     .977138369758D+00  .142750000000D+03  .724294064795D+00 -.773567936495D-08
     .338585532018D-09  .100000000000D+01  .180900000000D+04  .000000000000D+00
     .340000000000D+01  .000000000000D+00  .558793544769D-08  .108000000000D+03
     .324006000000D+06  .400000000000D+01
